NORAD_CAT_ID,OBJECT_NAME,OBJECT_TYPE,EPOCH,MEAN_MOTION,ECCENTRICITY,INCLINATION,RA_OF_ASC_NODE,ARG_OF_PERICENTER,MEAN_ANOMALY,BSTAR,MEAN_MOTION_DOT,MEAN_MOTION_DDOT,TLE_LINE0,TLE_LINE1,TLE_LINE2,SEMIMAJOR_AXIS,PERIOD,APOGEE,PERIGEE,DECAYED
53922.0,STARLINK-5002,PAYLOAD,2023-04-22 02:28:48,15.08853232,0.0001096,53.2181,359.1119,99.1965,260.9151,0.00046233,7.08e-05,0.0,0 STARLINK-5002,1 53922U 22119AN  23112.10333872  .00007080  00000-0  46233-3 0  9998,2 53922  53.2181 359.1119 0001096  99.1965 260.9151 15.08853232 32924,6917.84,95.437,540.463,538.947,0.0
53922.0,STARLINK-5002,PAYLOAD,2023-04-22 16:47:16,15.08844518,0.000112,53.2177,356.4363,106.0307,254.0809,9.7261e-05,1.261e-05,0.0,0 STARLINK-5002,1 53922U 22119AN  23112.69949930  .00001261  00000-0  97261-4 0  9993,2 53922  53.2177 356.4363 0001120 106.0307 254.0809 15.08844518 33018,6917.867,95.437,540.506,538.957,0.0
53922.0,STARLINK-5002,PAYLOAD,2023-04-22 23:08:49,15.08845727,0.0001136,53.2183,355.2456,108.7633,251.3482,0.0001386,1.919e-05,0.0,0 STARLINK-5002,1 53922U 22119AN  23112.96445752  .00001919  00000-0  13860-3 0  9998,2 53922  53.2183 355.2456 0001136 108.7633 251.3482 15.08845727 33057,6917.863,95.437,540.514,538.942,0.0
53922.0,STARLINK-5002,PAYLOAD,2023-04-23 16:38:03,15.08840501,9.81e-05,53.2174,351.9766,96.4824,263.628,-9.025e-05,-1.724e-05,0.0,0 STARLINK-5002,1 53922U 22119AN  23113.69310096 -.00001724  00000-0 -90250-4 0  9996,2 53922  53.2174 351.9766 0000981  96.4824 263.6280 15.08840501 32748,6917.879,95.438,540.423,539.065,0.0
53922.0,STARLINK-5002,PAYLOAD,2023-04-24 02:10:22,15.08850136,0.0001204,53.217,350.1921,101.7207,258.392,0.00018471,2.654e-05,0.0,0 STARLINK-5002,1 53922U 22119AN  23114.09053594  .00002654  00000-0  18471-3 0  9993,2 53922  53.2170 350.1921 0001204 101.7207 258.3920 15.08850136 33223,6917.849,95.437,540.547,538.881,0.0
53922.0,STARLINK-5002,PAYLOAD,2023-04-24 22:50:21,15.08885568,0.0001177,53.2174,346.3263,96.7729,263.3398,0.00097423,0.0001527,0.0,0 STARLINK-5002,1 53922U 22119AN  23114.95163818  .00015270  00000-0  97423-3 0  9991,2 53922  53.2174 346.3263 0001177  96.7729 263.3398 15.08885568 33350,6917.741,95.435,540.42,538.792,0.0
53922.0,STARLINK-5002,PAYLOAD,2023-04-26 05:02:44,15.08797032,0.0001218,53.2176,340.6769,81.4057,278.7073,0.0009075,0.00014167,0.0,0 STARLINK-5002,1 53922U 22119AN  23116.21023415  .00014167  00000-0  90750-3 0  9990,2 53922  53.2176 340.6769 0001218  81.4057 278.7073 15.08797032 33540,6918.012,95.44,540.719,539.034,0.0
53922.0,STARLINK-5002,PAYLOAD,2023-04-26 20:56:36,15.08831087,9e-05,53.2163,337.7055,115.4433,244.6653,0.0014808,0.00023352,0.0,0 STARLINK-5002,1 53922U 22119AN  23116.87264223  .00023352  00000-0  14808-2 0  9991,2 53922  53.2163 337.7055 0000900 115.4433 244.6653 15.08831087 33640,6917.908,95.438,540.395,539.15,0.0
53922.0,STARLINK-5002,PAYLOAD,2023-04-26 22:31:59,15.08837201,9.97e-05,53.2158,337.4074,122.7035,237.4054,0.0017359,0.00027445,0.0,0 STARLINK-5002,1 53922U 22119AN  23116.93888208  .00027445  00000-0  17359-2 0  9994,2 53922  53.2158 337.4074 0000997 122.7035 237.4054 15.08837201 33231,6917.889,95.438,540.444,539.064,0.0
53922.0,STARLINK-5002,PAYLOAD,2023-04-27 20:47:22,15.08860354,9.99e-05,53.2161,333.2437,137.6254,222.4815,0.00074826,0.00011647,0.0,0 STARLINK-5002,1 53922U 22119AN  23117.86623447  .00011647  00000-0  74826-3 0  9999,2 53922  53.2161 333.2437 0000999 137.6254 222.4815 15.08860354 33371,6917.818,95.436,540.374,538.992,0.0
53922.0,STARLINK-5002,PAYLOAD,2023-04-28 07:55:04,15.08855085,0.0001036,53.2171,331.1632,99.7098,260.4011,0.00015088,2.115e-05,0.0,0 STARLINK-5002,1 53922U 22119AN  23118.32991138  .00002115  00000-0  15088-3 0  9991,2 53922  53.2171 331.1632 0001036  99.7098 260.4011 15.08855085 33446,6917.834,95.437,540.416,538.983,0.0
53922.0,STARLINK-5002,PAYLOAD,2023-04-28 22:13:32,15.088491,6.98e-05,53.2156,328.4867,117.8967,242.2096,0.00018409,2.644e-05,0.0,0 STARLINK-5002,1 53922U 22119AN  23118.92606824  .00002644  00000-0  18409-3 0  9999,2 53922  53.2156 328.4867 0000698 117.8967 242.2096 15.08849100 33530,6917.853,95.437,540.2,539.235,0.0
53922.0,STARLINK-5002,PAYLOAD,2023-04-29 12:32:00,15.08847177,7.96e-05,53.2166,325.8084,121.8884,238.2186,0.00025375,3.754e-05,0.0,0 STARLINK-5002,1 53922U 22119AN  23119.52222769  .00003754  00000-0  25375-3 0  9991,2 53922  53.2166 325.8084 0000796 121.8884 238.2186 15.08847177 34049,6917.858,95.437,540.274,539.173,0.0
53922.0,STARLINK-5002,PAYLOAD,2023-04-29 23:39:42,15.08853203,7.32e-05,53.2165,323.7263,118.8626,241.2439,0.00043476,6.641e-05,0.0,0 STARLINK-5002,1 53922U 22119AN  23119.98590519  .00006641  00000-0  43476-3 0  9992,2 53922  53.2165 323.7263 0000732 118.8626 241.2439 15.08853203 33696,6917.84,95.437,540.211,539.199,0.0
53922.0,STARLINK-5002,PAYLOAD,2023-04-30 13:58:10,15.08842539,7.67e-05,53.2161,321.051,108.1896,251.918,0.00012291,1.669e-05,0.0,0 STARLINK-5002,1 53922U 22119AN  23120.58206800  .00001669  00000-0  12291-3 0  9993,2 53922  53.2161 321.0510 0000767 108.1896 251.9180 15.08842539 34206,6917.873,95.437,540.268,539.207,0.0
53922.0,STARLINK-5002,PAYLOAD,2023-04-30 18:44:20,15.08841455,5.91e-05,53.2163,320.1587,102.943,257.1628,9.1715e-05,1.172e-05,0.0,0 STARLINK-5002,1 53922U 22119AN  23120.78078832  .00001172  00000-0  91715-4 0  9995,2 53922  53.2163 320.1587 0000591 102.9430 257.1628 15.08841455 33810,6917.876,95.437,540.15,539.332,0.0
53922.0,STARLINK-5002,PAYLOAD,2023-05-01 12:13:34,15.08836943,8.26e-05,53.216,316.8852,115.0292,245.0785,-1.1546e-05,-4.71e-06,0.0,0 STARLINK-5002,1 53922U 22119AN  23121.50943036 -.00000471  00000-0 -11546-4 0  9990,2 53922  53.2160 316.8852 0000826 115.0292 245.0785 15.08836943 34341,6917.89,95.438,540.326,539.183,0.0
53922.0,STARLINK-5002,PAYLOAD,2023-05-01 18:35:07,15.08842467,7.13e-05,53.216,315.6961,116.1169,243.9897,7.3608e-05,8.84e-06,0.0,0 STARLINK-5002,1 53922U 22119AN  23121.77438835  .00000884  00000-0  73608-4 0  9998,2 53922  53.2160 315.6961 0000713 116.1169 243.9897 15.08842467 34382,6917.873,95.437,540.231,539.245,0.0
53922.0,STARLINK-5002,PAYLOAD,2023-05-01 21:45:53,15.08844205,8.15e-05,53.2163,315.1016,118.2574,241.85,8.6825e-05,1.095e-05,0.0,0 STARLINK-5002,1 53922U 22119AN  23121.90686741  .00001095  00000-0  86825-4 0  9994,2 53922  53.2163 315.1016 0000815 118.2574 241.8500 15.08844205 33982,6917.868,95.437,540.296,539.169,0.0
53922.0,STARLINK-5002,PAYLOAD,2023-05-02 12:04:21,15.08840641,9.08e-05,53.2165,312.426,116.2771,243.8315,0.00012179,1.651e-05,0.0,0 STARLINK-5002,1 53922U 22119AN  23122.50302982  .00001651  00000-0  12179-3 0  9991,2 53922  53.2165 312.4260 0000908 116.2771 243.8315 15.08840641 34498,6917.878,95.438,540.372,539.115,0.0
53922.0,STARLINK-5002,PAYLOAD,2023-05-02 20:01:17,15.08844565,8.33e-05,53.2167,310.9396,110.1778,249.9304,0.00016353,2.316e-05,0.0,0 STARLINK-5002,1 53922U 22119AN  23122.83422798  .00002316  00000-0  16353-3 0  9992,2 53922  53.2167 310.9396 0000833 110.1778 249.9304 15.08844565 34540,6917.866,95.437,540.308,539.155,0.0
53922.0,STARLINK-5002,PAYLOAD,2023-05-03 05:33:36,15.08841432,7.33e-05,53.2172,309.156,95.3196,264.7879,6.9432e-05,8.18e-06,0.0,0 STARLINK-5002,1 53922U 22119AN  23123.23166952  .00000818  00000-0  69432-4 0  9996,2 53922  53.2172 309.1560 0000733  95.3196 264.7879 15.08841432 34188,6917.876,95.437,540.248,539.234,0.0
53922.0,STARLINK-5002,PAYLOAD,2023-05-03 11:55:09,15.088378,7.24e-05,53.2148,307.9669,103.804,256.3033,7.4317e-05,8.95e-06,0.0,0 STARLINK-5002,1 53922U 22119AN  23123.49663210  .00000895  00000-0  74317-4 0  9996,2 53922  53.2148 307.9669 0000724 103.8040 256.3033 15.08837800 34644,6917.887,95.438,540.253,539.251,0.0
53922.0,STARLINK-5002,PAYLOAD,2023-05-03 21:27:27,15.08843893,6.88e-05,53.217,306.1819,108.6638,251.4429,8.9022e-05,1.13e-05,0.0,0 STARLINK-5002,1 53922U 22119AN  23123.89407067  .00001130  00000-0  89022-4 0  9998,2 53922  53.2170 306.1819 0000688 108.6638 251.4429 15.08843893 34703,6917.868,95.437,540.209,539.258,0.0
53922.0,STARLINK-5002,PAYLOAD,2023-05-04 05:24:23,15.08838274,7.51e-05,53.217,304.6942,101.3629,258.7447,5.6704e-05,6.15e-06,0.0,0 STARLINK-5002,1 53922U 22119AN  23124.22527546  .00000615  00000-0  56704-4 0  9999,2 53922  53.2170 304.6942 0000751 101.3629 258.7447 15.08838274 34330,6917.886,95.438,540.27,539.231,0.0
53922.0,STARLINK-5002,PAYLOAD,2023-05-04 11:45:56,15.08842604,6.48e-05,53.2167,303.5046,93.133,266.9736,5.4273e-05,5.76e-06,0.0,0 STARLINK-5002,1 53922U 22119AN  23124.49023347  .00000576  00000-0  54273-4 0  9993,2 53922  53.2167 303.5046 0000648  93.1330 266.9736 15.08842604 34795,6917.872,95.437,540.186,539.289,0.0
53922.0,STARLINK-5002,PAYLOAD,2023-05-04 19:42:51,15.08846516,6.78e-05,53.2157,302.0182,89.3224,270.7846,0.00014401,2.005e-05,0.0,0 STARLINK-5002,1 53922U 22119AN  23124.82142946  .00002005  00000-0  14401-3 0  9994,2 53922  53.2157 302.0182 0000678  89.3224 270.7846 15.08846516 34848,6917.86,95.437,540.195,539.256,0.0
53922.0,STARLINK-5002,PAYLOAD,2023-05-05 17:58:15,15.08837064,6.62e-05,53.216,297.8544,93.0998,267.007,0.00024006,3.535e-05,0.0,0 STARLINK-5002,1 53922U 22119AN  23125.74879600  .00003535  00000-0  24006-3 0  9991,2 53922  53.2160 297.8544 0000662  93.0998 267.0070 15.08837064 34563,6917.889,95.438,540.212,539.296,0.0
53922.0,STARLINK-5002,PAYLOAD,2023-05-06 20:59:48,15.08852447,6.97e-05,53.216,292.7991,84.1791,275.9281,0.00020395,2.961e-05,0.0,0 STARLINK-5002,1 53922U 22119AN  23126.87486680  .00002961  00000-0  20395-3 0  9997,2 53922  53.2160 292.7991 0000697  84.1791 275.9281 15.08852447 34736,6917.842,95.437,540.19,539.225,0.0
53922.0,STARLINK-5002,PAYLOAD,2023-05-07 17:39:50,15.08837267,6.21e-05,53.216,288.934,86.8792,273.2271,5.5918e-05,6.02e-06,0.0,0 STARLINK-5002,1 53922U 22119AN  23127.73599725  .00000602  00000-0  55918-4 0  9998,2 53922  53.2160 288.9340 0000621  86.8792 273.2271 15.08837267 34865,6917.889,95.438,540.183,539.324,0.0
